ONEWEB-0560             
1 55145U 23004F   26004.02975701 -.00000166  00000+0 -45443-3 0  9999
2 55145  87.9166   8.0669 0001534  84.1213 276.0094 13.18685520148077
ONEWEB-0565             
1 55146U 23004G   26004.02315523 -.00000153  00000+0 -42189-3 0  9990
2 55146  87.9154   8.1117 0001286  99.1446 260.9832 13.18685871148062
ONEWEB-0567             
1 55147U 23004H   26003.94067819 -.00000143  00000+0 -39670-3 0  9993
2 55147  87.9165   8.0970 0001337  90.2090 269.9196 13.18686022148055
ONEWEB-0569             
1 55148U 23004J   26003.99776020 -.00000179  00000+0 -52577-3 0  9990
2 55148  87.8993 352.8387 0001004  58.6544 301.4683 13.13469490148628
ONEWEB-0570             
1 55149U 23004K   26004.00666847 -.00000049  00000+0 -15753-3 0  9990
2 55149  87.9163   8.0834 0001734 105.7367 254.3957 13.18685562148055
ONEWEB-0571             
1 55150U 23004L   26004.07595248 -.00000020  00000+0 -82755-4 0  9991
2 55150  87.9161   8.0687 0000516 112.8076 247.3110 13.18685639148074
ONEWEB-0572             
1 55151U 23004M   26004.11753923  .00000480  00000+0  12032-2 0  9990
2 55151  87.9093  38.4854 0001462  99.1751 260.9546 13.17647973145877
ONEWEB-0573             
1 55152U 23004N   26004.06934549 -.00000043  00000+0 -14178-3 0  9991
2 55152  87.9154   8.0733 0001283 118.1268 241.9994 13.18685647148062
